[
  {
    "name": "ONEWEB-0365",
    "noradId": "49291",
    "line1": "1 49291U 21090N   26158.10306551 -.00000108  00000+0 -30313-3 0  9993",
    "line2": "2 49291  87.9170 306.9754 0001698  98.0684 262.0642 13.19725522225099"
  },
  {
    "name": "ONEWEB-0366",
    "noradId": "49292",
    "line1": "1 49292U 21090P   26158.08386702 -.00000178  00000+0 -51523-3 0  9990",
    "line2": "2 49292  87.8955 291.7203 0001930  99.8163 260.3185 13.14501915226233"
  },
  {
    "name": "ONEWEB-0367",
    "noradId": "49293",
    "line1": "1 49293U 21090Q   26157.63300647 -.00012439  00000+0 -30693-1 0  9991",
    "line2": "2 49293  87.9195 276.5438 0000429 122.4243 237.6931 13.20715594228433"
  },
  {
    "name": "ONEWEB-0368",
    "noradId": "49294",
    "line1": "1 49294U 21090R   26158.06139710  .00000003  00000+0 -25771-4 0  9998",
    "line2": "2 49294  87.9175 276.4701 0001724  79.4011 280.7317 13.20769917229646"
  },
  {
    "name": "ONEWEB-0369",
    "noradId": "49295",
    "line1": "1 49295U 21090S   26158.17414858 -.00000081  00000+0 -23406-3 0  9999",
    "line2": "2 49295  87.9158 306.9696 0001715  95.2810 264.8518 13.19724067225099"
  },
  {
    "name": "ONEWEB-0370",
    "noradId": "49296",
    "line1": "1 49296U 21090T   26157.56645808 -.00000186  00000+0 -48873-3 0  9994",
    "line2": "2 49296  87.9191 276.5572 0001963 107.1065 253.0283 13.20770912228467"
  },
  {
    "name": "ONEWEB-0371",
    "noradId": "49297",
    "line1": "1 49297U 21090U   26158.10622013 -.00000028  00000+0 -10336-3 0  9997",
    "line2": "2 49297  87.9166 306.9747 0001736  99.8907 260.2422 13.19724384225127"
  },
  {
    "name": "ONEWEB-0372",
    "noradId": "49298",
    "line1": "1 49298U 21090V   26156.87441169  .00000025  00000+0  29687-4 0  9996",
    "line2": "2 49298  87.9190 276.6964 0001866 100.4956 259.6388 13.20770945228342"
  },
  {
    "name": "ONEWEB-0373",
    "noradId": "49299",
    "line1": "1 49299U 21090W   26157.58161991  .00000161  00000+0  36369-3 0  9993",
    "line2": "2 49299  87.9199 276.5559 0002056 101.1316 259.0049 13.20771541229624"
  },
  {
    "name": "ONEWEB-0374",
    "noradId": "49300",
    "line1": "1 49300U 21090X   26158.07118681  .00000046  00000+0  89062-4 0  9990",
    "line2": "2 49300  87.8960 291.7135 0002316  88.3579 271.7816 13.14502121226233"
  },
  {
    "name": "ONEWEB-0375",
    "noradId": "49301",
    "line1": "1 49301U 21090Y   26158.02438301 -.00000048  00000+0 -15064-3 0  9994",
    "line2": "2 49301  87.9191 276.4591 0002416  92.0635 268.0775 13.20771063229183"
  },
  {
    "name": "ONEWEB-0376",
    "noradId": "49302",
    "line1": "1 49302U 21090Z   26158.10464488  .00000000  00000+0 -31466-4 0  9991",
    "line2": "2 49302  87.9173 306.9748 0001644  96.8862 263.2457 13.19724316225124"
  },
  {
    "name": "ONEWEB-0377",
    "noradId": "49303",
    "line1": "1 49303U 21090AA  26157.55651586  .00000104  00000+0  22281-3 0  9995",
    "line2": "2 49303  87.9189 276.5545 0002145 100.8979 259.2396 13.20772374229110"
  },
  {
    "name": "ONEWEB-0378",
    "noradId": "49304",
    "line1": "1 49304U 21090AB  26158.03123795 -.00000036  00000+0 -11943-3 0  9995",
    "line2": "2 49304  87.9205 276.4651 0001996  97.0233 263.1127 13.20770400228449"
  },
  {
    "name": "ONEWEB-0379",
    "noradId": "49305",
    "line1": "1 49305U 21090AC  26158.06642337  .00000089  00000+0  20502-3 0  9994",
    "line2": "2 49305  87.8959 291.7255 0001910  95.4597 264.6751 13.14501543226233"
  },
  {
    "name": "ONEWEB-0380",
    "noradId": "49306",
    "line1": "1 49306U 21090AD  26158.17731078 -.00000085  00000+0 -24592-3 0  9999",
    "line2": "2 49306  87.9162 306.9665 0002027  98.0921 262.0442 13.19724748225108"
  },
  {
    "name": "ONEWEB-0381",
    "noradId": "49307",
    "line1": "1 49307U 21090AE  26158.08330680 -.00000027  00000+0 -97907-4 0  9991",
    "line2": "2 49307  87.9193 276.4541 0002140  94.7096 265.4282 13.20771741228490"
  },
  {
    "name": "ONEWEB-0382",
    "noradId": "49308",
    "line1": "1 49308U 21090AF  26158.06981425 -.00000054  00000+0 -16389-3 0  9993",
    "line2": "2 49308  87.9188 276.4513 0002080  92.8110 267.3262 13.20769840228488"
  },
  {
    "name": "ONEWEB-0383",
    "noradId": "49309",
    "line1": "1 49309U 21090AG  26158.06006653  .00000226  00000+0  57584-3 0  9996",
    "line2": "2 49309  87.8966 291.7178 0001870  94.5758 265.5585 13.14504023226267"
  },
  {
    "name": "ONEWEB-0384",
    "noradId": "49310",
    "line1": "1 49310U 21090AH  26157.90727366  .00000008  00000+0 -12011-4 0  9997",
    "line2": "2 49310  87.9190 276.5273 0002142  87.9136 272.2243 13.20811680228473"
  },
  {
    "name": "ONEWEB-0385",
    "noradId": "49311",
    "line1": "1 49311U 21090AJ  26157.60856602  .00000049  00000+0  88923-4 0  9990",
    "line2": "2 49311  87.9189 276.5485 0002050  95.2785 264.8582 13.20772090228404"
  },
  {
    "name": "ONEWEB-0386",
    "noradId": "49312",
    "line1": "1 49312U 21090AK  26158.07993796 -.00000104  00000+0 -28722-3 0  9993",
    "line2": "2 49312  87.9194 276.4442 0002043  96.0497 264.0869 13.20771226228482"
  },
  {
    "name": "ONEWEB-0387",
    "noradId": "49313",
    "line1": "1 49313U 21090AL  26158.06478938 -.00000023  00000+0 -89275-4 0  9990",
    "line2": "2 49313  87.9180 276.4716 0002302  99.7781 260.3612 13.20771944228488"
  },
  {
    "name": "ONEWEB-0388",
    "noradId": "49314",
    "line1": "1 49314U 21090AM  26158.17257264 -.00000063  00000+0 -18850-3 0  9994",
    "line2": "2 49314  87.9162 306.9654 0001879  93.0994 267.0354 13.19725000225091"
  },
  {
    "name": "ONEWEB-0389",
    "noradId": "50469",
    "line1": "1 50469U 21132A   26157.87139273  .00000018  00000+0  12531-4 0  9998",
    "line2": "2 50469  87.9141   7.9207 0002213  85.3297 274.8088 13.17647470216728"
  },
  {
    "name": "ONEWEB-0390",
    "noradId": "50470",
    "line1": "1 50470U 21132B   26157.87307932  .00000100  00000+0  22332-3 0  9990",
    "line2": "2 50470  87.9142   7.9211 0001879  93.6521 266.4826 13.17647845216728"
  },
  {
    "name": "ONEWEB-0391",
    "noradId": "50471",
    "line1": "1 50471U 21132C   26157.64695934  .00000007  00000+0 -14937-4 0  9998",
    "line2": "2 50471  87.9144   7.9757 0002633  92.9908 267.1525 13.17647711216698"
  },
  {
    "name": "ONEWEB-0392",
    "noradId": "50472",
    "line1": "1 50472U 21132D   26158.28483173  .00000162  00000+0  38389-3 0  9997",
    "line2": "2 50472  87.9155   7.8172 0001989 101.2588 258.8768 13.17646786216813"
  },
  {
    "name": "ONEWEB-0393",
    "noradId": "50473",
    "line1": "1 50473U 21132E   26157.65287424 -.00000016  00000+0 -73876-4 0  9990",
    "line2": "2 50473  87.9144   7.9599 0002013  86.6544 273.4818 13.17649210216727"
  },
  {
    "name": "ONEWEB-0394",
    "noradId": "50474",
    "line1": "1 50474U 21132F   26158.23415245  .00000035  00000+0  57245-4 0  9991",
    "line2": "2 50474  87.9167 337.4228 0002028  87.5667 272.5697 13.18683793220281"
  }
]