OBJECT_NAME,OBJECT_ID,EPOCH,MEAN_MOTION,ECCENTRICITY,INCLINATION,RA_OF_ASC_NODE,ARG_OF_PERICENTER,MEAN_ANOMALY,EPHEMERIS_TYPE,CLASSIFICATION_TYPE,NORAD_CAT_ID,ELEMENT_SET_NO,REV_AT_EPOCH,BSTAR,MEAN_MOTION_DOT,MEAN_MOTION_DDOT
ONEWEB-0365,2021-090N,2026-06-07T02:28:24.860064,13.19725522,.00016985,87.9170,306.9754,98.0684,262.0642,0,U,49291,999,22509,-.30312804E-3,-.108E-5,0
ONEWEB-0366,2021-090P,2026-06-07T02:00:46.110528,13.14501915,.00019308,87.8955,291.7203,99.8163,260.3185,0,U,49292,999,22623,-.51522676E-3,-.178E-5,0
ONEWEB-0367,2021-090Q,2026-06-06T15:11:31.759008,13.20715594,.0000429,87.9195,276.5438,122.4243,237.6931,0,U,49293,999,22843,-.30693E-1,-.12439E-3,0
ONEWEB-0368,2021-090R,2026-06-07T01:28:24.709440,13.20769917,.0001724,87.9175,276.4701,79.4011,280.7317,0,U,49294,999,22964,-.25771309E-4,.3E-7,0
ONEWEB-0369,2021-090S,2026-06-07T04:10:46.437312,13.19724067,.00017153,87.9158,306.9696,95.2810,264.8518,0,U,49295,999,22509,-.23406323E-3,-.81E-6,0
ONEWEB-0370,2021-090T,2026-06-06T13:35:41.978112,13.20770912,.0001963,87.9191,276.5572,107.1065,253.0283,0,U,49296,999,22846,-.48873E-3,-.186E-5,0
ONEWEB-0371,2021-090U,2026-06-07T02:32:57.419232,13.19724384,.00017366,87.9166,306.9747,99.8907,260.2422,0,U,49297,999,22512,-.10335972E-3,-.28E-6,0
ONEWEB-0372,2021-090V,2026-06-05T20:59:09.170016,13.20770945,.0001866,87.9190,276.6964,100.4956,259.6388,0,U,49298,999,22834,.29687E-4,.25E-6,0
ONEWEB-0373,2021-090W,2026-06-06T13:57:31.960224,13.20771541,.0002056,87.9199,276.5559,101.1316,259.0049,0,U,49299,999,22962,.36369E-3,.161E-5,0
ONEWEB-0374,2021-090X,2026-06-07T01:42:30.540384,13.14502121,.00023164,87.8960,291.7135,88.3579,271.7816,0,U,49300,999,22623,.89061689E-4,.46E-6,0
ONEWEB-0375,2021-090Y,2026-06-07T00:35:06.692064,13.20771063,.00024169,87.9191,276.4591,92.0635,268.0775,0,U,49301,999,22918,-.1506351E-3,-.48E-6,0
ONEWEB-0376,2021-090Z,2026-06-07T02:30:41.317632,13.19724316,.00016443,87.9173,306.9748,96.8862,263.2457,0,U,49302,999,22512,-.31465799E-4,0,0
ONEWEB-0377,2021-090AA,2026-06-06T13:21:22.970304,13.20772374,.0002145,87.9189,276.5545,100.8979,259.2396,0,U,49303,999,22911,.22281E-3,.104E-5,0
ONEWEB-0378,2021-090AB,2026-06-07T00:44:58.958880,13.20770400,.00019964,87.9205,276.4651,97.0233,263.1127,0,U,49304,999,22844,-.11943186E-3,-.36E-6,0
ONEWEB-0379,2021-090AC,2026-06-07T01:35:38.979168,13.14501543,.00019102,87.8959,291.7255,95.4597,264.6751,0,U,49305,999,22623,.20501876E-3,.89E-6,0
ONEWEB-0380,2021-090AD,2026-06-07T04:15:19.651392,13.19724748,.00020277,87.9162,306.9665,98.0921,262.0442,0,U,49306,999,22510,-.24591544E-3,-.85E-6,0
ONEWEB-0381,2021-090AE,2026-06-07T01:59:57.707520,13.20771741,.00021403,87.9193,276.4541,94.7096,265.4282,0,U,49307,999,22849,-.97906834E-4,-.27E-6,0
ONEWEB-0382,2021-090AF,2026-06-07T01:40:31.951200,13.20769840,.00020805,87.9188,276.4513,92.8110,267.3262,0,U,49308,999,22848,-.1638914E-3,-.54E-6,0
ONEWEB-0383,2021-090AG,2026-06-07T01:26:29.748192,13.14504023,.00018704,87.8966,291.7178,94.5758,265.5585,0,U,49309,999,22626,.57584021E-3,.226E-5,0
ONEWEB-0384,2021-090AH,2026-06-06T21:46:28.444224,13.20811680,.00021425,87.9190,276.5273,87.9136,272.2243,0,U,49310,999,22847,-.12010902E-4,.8E-7,0
ONEWEB-0385,2021-090AJ,2026-06-06T14:36:20.104128,13.20772090,.000205,87.9189,276.5485,95.2785,264.8582,0,U,49311,999,22840,.88923E-4,.49E-6,0
ONEWEB-0386,2021-090AK,2026-06-07T01:55:06.639744,13.20771226,.00020438,87.9194,276.4442,96.0497,264.0869,0,U,49312,999,22848,-.28722393E-3,-.104E-5,0
ONEWEB-0387,2021-090AL,2026-06-07T01:33:17.802432,13.20771944,.00023024,87.9180,276.4716,99.7781,260.3612,0,U,49313,999,22848,-.89275252E-4,-.23E-6,0
ONEWEB-0388,2021-090AM,2026-06-07T04:08:30.276096,13.19725000,.00018796,87.9162,306.9654,93.0994,267.0354,0,U,49314,999,22509,-.18850288E-3,-.63E-6,0
ONEWEB-0389,2021-132A,2026-06-06T20:54:48.331872,13.17647470,.00022139,87.9141,7.9207,85.3297,274.8088,0,U,50469,999,21672,.12530969E-4,.18E-6,0
ONEWEB-0390,2021-132B,2026-06-06T20:57:14.053248,13.17647845,.00018797,87.9142,7.9211,93.6521,266.4826,0,U,50470,999,21672,.22332331E-3,.1E-5,0
ONEWEB-0391,2021-132C,2026-06-06T15:31:37.286976,13.17647711,.00026338,87.9144,7.9757,92.9908,267.1525,0,U,50471,999,21669,-.14936714E-4,.7E-7,0
ONEWEB-0392,2021-132D,2026-06-07T06:50:09.461472,13.17646786,.00019898,87.9155,7.8172,101.2588,258.8768,0,U,50472,999,21681,.38388511E-3,.162E-5,0
ONEWEB-0393,2021-132E,2026-06-06T15:40:08.334336,13.17649210,.00020131,87.9144,7.9599,86.6544,273.4818,0,U,50473,999,21672,-.73875586E-4,-.16E-6,0
ONEWEB-0394,2021-132F,2026-06-07T05:37:10.771680,13.18683793,.00020286,87.9167,337.4228,87.5667,272.5697,0,U,50474,999,22028,.57245178E-4,.35E-6,0
